start=new Date('2022-09-16T00:00:00.000Z').valueOf();
sats=[{"ARG_OF_PERICENTER":"102.2612","TLE_LINE1":"1 48412U 21038BM  22258.77424280  .00001219  00000-0  10074-3 0  9994","PERIAPSIS":"546.314","REF_FRAME":"TEME","SEMIMAJOR_AXIS":"6925.375","APOAPSIS":"548.166","EPOCH":"2022-09-15T18:34:54.577920","DECAY_DATE":null,"OBJECT_TYPE":"PAYLOAD","INCLINATION":"53.0550","TLE_LINE2":"2 48412  53.0550 237.4193 0001337 102.2612 257.8526 15.06391465 76453","GP_ID":"212679998","MEAN_ELEMENT_THEORY":"SGP4","MEAN_ANOMALY":"257.8526","RA_OF_ASC_NODE":"237.4193","MEAN_MOTION_DOT":"0.00001219","RCS_SIZE":"LARGE","CLASSIFICATION_TYPE":"U","FILE":"3575050","NORAD_CAT_ID":"48412","ELEMENT_SET_NO":"999","SITE":"AFETR","CENTER_NAME":"EARTH","LAUNCH_DATE":"2021-05-04","MEAN_MOTION":"15.06391465","OBJECT_NAME":"STARLINK-2581","OBJECT_ID":"2021-038BM","ECCENTRICITY":"0.00013370","PERIOD":"95.593","REV_AT_EPOCH":"7645","MEAN_MOTION_DDOT":"0.0000000000000","BSTAR":"0.00010074000000","TIME_SYSTEM":"UTC","COUNTRY_CODE":"US","EPHEMERIS_TYPE":"0"},{"SITE":"AFETR","LAUNCH_DATE":"2021-05-09","MEAN_MOTION":"15.06400005","CENTER_NAME":"EARTH","ELEMENT_SET_NO":"999","FILE":"3575050","NORAD_CAT_ID":"48428","OBJECT_ID":"2021-040A","OBJECT_NAME":"STARLINK-2461","BSTAR":"0.00006592600000","REV_AT_EPOCH":"7502","PERIOD":"95.592","MEAN_MOTION_DDOT":"0.0000000000000","ECCENTRICITY":"0.00015950","EPHEMERIS_TYPE":"0","COUNTRY_CODE":"US","TIME_SYSTEM":"UTC","PERIAPSIS":"546.109","TLE_LINE1":"1 48428U 21040A   22258.91471198  .00000701  00000-0  65926-4 0  9992","ARG_OF_PERICENTER":"83.6188","EPOCH":"2022-09-15T21:57:11.115072","APOAPSIS":"548.318","SEMIMAJOR_AXIS":"6925.349","REF_FRAME":"TEME","GP_ID":"212680499","TLE_LINE2":"2 48428  53.0524 131.3623 0001595  83.6188 276.4982 15.06400005 75023","OBJECT_TYPE":"PAYLOAD","INCLINATION":"53.0524","DECAY_DATE":null,"RA_OF_ASC_NODE":"131.3623","CLASSIFICATION_TYPE":"U","RCS_SIZE":"LARGE","MEAN_MOTION_DOT":"0.00000701","MEAN_ANOMALY":"276.4982","MEAN_ELEMENT_THEORY":"SGP4"},{"MEAN_ELEMENT_THEORY":"SGP4","RA_OF_ASC_NODE":"101.4931","CLASSIFICATION_TYPE":"U","RCS_SIZE":"LARGE","MEAN_MOTION_DOT":"0.00006326","MEAN_ANOMALY":"191.1381","OBJECT_TYPE":"PAYLOAD","INCLINATION":"53.0550","DECAY_DATE":null,"GP_ID":"212680751","TLE_LINE2":"2 48429  53.0550 101.4931 0001157 168.9633 191.1381 15.06427592 75430","SEMIMAJOR_AXIS":"6925.264","REF_FRAME":"TEME","EPOCH":"2022-09-15T21:13:21.521568","APOAPSIS":"547.930","TLE_LINE1":"1 48429U 21040B   22258.88427687  .00006326  00000-0  44285-3 0  9996","ARG_OF_PERICENTER":"168.9633","PERIAPSIS":"546.328","TIME_SYSTEM":"UTC","EPHEMERIS_TYPE":"0","COUNTRY_CODE":"US","PERIOD":"95.590","REV_AT_EPOCH":"7543","MEAN_MOTION_DDOT":"0.0000000000000","ECCENTRICITY":"0.00011570","BSTAR":"0.00044285000000","OBJECT_NAME":"STARLINK-2749","OBJECT_ID":"2021-040B","ELEMENT_SET_NO":"999","FILE":"3575050","NORAD_CAT_ID":"48429","SITE":"AFETR","CENTER_NAME":"EARTH","LAUNCH_DATE":"2021-05-09","MEAN_MOTION":"15.06427592"},{"OBJECT_ID":"2021-040C","OBJECT_NAME":"STARLINK-2729","SITE":"AFETR","CENTER_NAME":"EARTH","LAUNCH_DATE":"2021-05-09","MEAN_MOTION":"15.06392275","ELEMENT_SET_NO":"999","FILE":"3575050","NORAD_CAT_ID":"48430","EPHEMERIS_TYPE":"0","COUNTRY_CODE":"US","TIME_SYSTEM":"UTC","BSTAR":"0.00001937600000","REV_AT_EPOCH":"7543","PERIOD":"95.593","MEAN_MOTION_DDOT":"0.0000000000000","ECCENTRICITY":"0.00014880","EPOCH":"2022-09-15T20:24:16.548192","APOAPSIS":"548.268","SEMIMAJOR_AXIS":"6925.372","REF_FRAME":"TEME","PERIAPSIS":"546.207","TLE_LINE1":"1 48430U 21040C   22258.85019153  .00000007  00000-0  19376-4 0  9994","ARG_OF_PERICENTER":"68.1096","RA_OF_ASC_NODE":"101.6486","RCS_SIZE":"LARGE","MEAN_MOTION_DOT":"0.00000007","CLASSIFICATION_TYPE":"U","MEAN_ANOMALY":"292.0051","MEAN_ELEMENT_THEORY":"SGP4","GP_ID":"212680998","TLE_LINE2":"2 48430  53.0550 101.6486 0001488  68.1096 292.0051 15.06392275 75434","OBJECT_TYPE":"PAYLOAD","INCLINATION":"53.0550","DECAY_DATE":null},{"SEMIMAJOR_AXIS":"6925.347","REF_FRAME":"TEME","EPOCH":"2022-09-15T14:21:20.780352","APOAPSIS":"548.187","TLE_LINE1":"1 48431U 21040D   22258.59815718  .00001053  00000-0  89575-4 0  9997","ARG_OF_PERICENTER":"90.7307","PERIAPSIS":"546.238","MEAN_ELEMENT_THEORY":"SGP4","RA_OF_ASC_NODE":"97.7782","CLASSIFICATION_TYPE":"U","RCS_SIZE":"LARGE","MEAN_MOTION_DOT":"0.00001053","MEAN_ANOMALY":"269.3843","OBJECT_TYPE":"PAYLOAD","INCLINATION":"53.0558","DECAY_DATE":null,"GP_ID":"212680250","TLE_LINE2":"2 48431  53.0558  97.7782 0001407  90.7307 269.3843 15.06400438 75464","OBJECT_NAME":"STARLINK-2700","OBJECT_ID":"2021-040D","ELEMENT_SET_NO":"999","FILE":"3575050","NORAD_CAT_ID":"48431","SITE":"AFETR","MEAN_MOTION":"15.06400438","LAUNCH_DATE":"2021-05-09","CENTER_NAME":"EARTH","TIME_SYSTEM":"UTC","EPHEMERIS_TYPE":"0","COUNTRY_CODE":"US","REV_AT_EPOCH":"7546","PERIOD":"95.592","MEAN_MOTION_DDOT":"0.0000000000000","ECCENTRICITY":"0.00014070","BSTAR":"0.00008957500000"},{"BSTAR":"0.00007399600000","ECCENTRICITY":"0.00012250","REV_AT_EPOCH":"7556","PERIOD":"95.592","MEAN_MOTION_DDOT":"0.0000000000000","COUNTRY_CODE":"US","EPHEMERIS_TYPE":"0","TIME_SYSTEM":"UTC","SITE":"AFETR","LAUNCH_DATE":"2021-05-09","CENTER_NAME":"EARTH","MEAN_MOTION":"15.06398493","FILE":"3575050","NORAD_CAT_ID":"48432","ELEMENT_SET_NO":"999","OBJECT_ID":"2021-040E","OBJECT_NAME":"STARLINK-2680","TLE_LINE2":"2 48432  53.0554  92.0602 0001225 102.1589 257.9537 15.06398493 75569","GP_ID":"212680000","DECAY_DATE":null,"OBJECT_TYPE":"PAYLOAD","INCLINATION":"53.0554","MEAN_ANOMALY":"257.9537","RA_OF_ASC_NODE":"92.0602","MEAN_MOTION_DOT":"0.00000821","RCS_SIZE":"LARGE","CLASSIFICATION_TYPE":"U","MEAN_ELEMENT_THEORY":"SGP4","PERIAPSIS":"546.370","ARG_OF_PERICENTER":"102.1589","TLE_LINE1":"1 48432U 21040E   22258.84473190  .00000821  00000-0  73996-4 0  9992","APOAPSIS":"548.067","EPOCH":"2022-09-15T20:16:24.836160","REF_FRAME":"TEME","SEMIMAJOR_AXIS":"6925.353"},{"ARG_OF_PERICENTER":"96.0522","TLE_LINE1":"1 48433U 21040F   22258.85714513 -.00002911  00000-0 -17658-3 0  9997","PERIAPSIS":"546.458","REF_FRAME":"TEME","SEMIMAJOR_AXIS":"6925.318","APOAPSIS":"547.909","EPOCH":"2022-09-15T20:34:17.339232","DECAY_DATE":null,"INCLINATION":"53.0546","OBJECT_TYPE":"PAYLOAD","TLE_LINE2":"2 48433  53.0546  96.8960 0001048  96.0522 264.0587 15.06409866 75494","GP_ID":"212681251","MEAN_ELEMENT_THEORY":"SGP4","MEAN_ANOMALY":"264.0587","MEAN_MOTION_DOT":"-0.00002911","RCS_SIZE":"LARGE","CLASSIFICATION_TYPE":"U","RA_OF_ASC_NODE":"96.8960","NORAD_CAT_ID":"48433","FILE":"3575050","ELEMENT_SET_NO":"999","LAUNCH_DATE":"2021-05-09","MEAN_MOTION":"15.06409866","CENTER_NAME":"EARTH","SITE":"AFETR","OBJECT_NAME":"STARLINK-2699","OBJECT_ID":"2021-040F","ECCENTRICITY":"0.00010480","MEAN_MOTION_DDOT":"0.0000000000000","PERIOD":"95.592","REV_AT_EPOCH":"7549","BSTAR":"-0.00017658000000","TIME_SYSTEM":"UTC","COUNTRY_CODE":"US","EPHEMERIS_TYPE":"0"},{"SEMIMAJOR_AXIS":"6925.351","REF_FRAME":"TEME","EPOCH":"2022-09-15T21:18:47.184768","APOAPSIS":"548.110","TLE_LINE1":"1 48434U 21040G   22258.88804612  .00000125  00000-0  27252-4 0  9996","ARG_OF_PERICENTER":"99.3258","PERIAPSIS":"546.322","MEAN_ELEMENT_THEORY":"SGP4","CLASSIFICATION_TYPE":"U","RCS_SIZE":"LARGE","MEAN_MOTION_DOT":"0.00000125","RA_OF_ASC_NODE":"101.9860","MEAN_ANOMALY":"260.7877","INCLINATION":"53.0547","OBJECT_TYPE":"PAYLOAD","DECAY_DATE":null,"GP_ID":"212681498","TLE_LINE2":"2 48434  53.0547 101.9860 0001291  99.3258 260.7877 15.06399267 75437","OBJECT_NAME":"STARLINK-2692","OBJECT_ID":"2021-040G","ELEMENT_SET_NO":"999","NORAD_CAT_ID":"48434","FILE":"3575050","MEAN_MOTION":"15.06399267","LAUNCH_DATE":"2021-05-09","CENTER_NAME":"EARTH","SITE":"AFETR","TIME_SYSTEM":"UTC","EPHEMERIS_TYPE":"0","COUNTRY_CODE":"US","MEAN_MOTION_DDOT":"0.0000000000000","REV_AT_EPOCH":"7543","PERIOD":"95.592","ECCENTRICITY":"0.00012910","BSTAR":"0.00002725200000"},{"BSTAR":"0.00014863000000","REV_AT_EPOCH":"7657","PERIOD":"95.593","MEAN_MOTION_DDOT":"0.0000000000000","ECCENTRICITY":"0.00012630","EPHEMERIS_TYPE":"0","COUNTRY_CODE":"US","TIME_SYSTEM":"UTC","SITE":"AFETR","LAUNCH_DATE":"2021-05-09","MEAN_MOTION":"15.06388394","CENTER_NAME":"EARTH","ELEMENT_SET_NO":"999","FILE":"3574926","NORAD_CAT_ID":"48435","OBJECT_ID":"2021-040H","OBJECT_NAME":"STARLINK-2633","GP_ID":"212656188","TLE_LINE2":"2 48435  53.0562 111.4582 0001263  71.4923 288.6203 15.06388394 76578","OBJECT_TYPE":"PAYLOAD","INCLINATION":"53.0562","DECAY_DATE":null,"RA_OF_ASC_NODE":"111.4582","CLASSIFICATION_TYPE":"U","RCS_SIZE":"LARGE","MEAN_MOTION_DOT":"0.00001932","MEAN_ANOMALY":"288.6203","MEAN_ELEMENT_THEORY":"SGP4","PERIAPSIS":"546.374","TLE_LINE1":"1 48435U 21040H   22258.89444602  .00001932  00000-0  14863-3 0  9997","ARG_OF_PERICENTER":"71.4923","EPOCH":"2022-09-15T21:28:00.136128","APOAPSIS":"548.124","SEMIMAJOR_AXIS":"6925.384","REF_FRAME":"TEME"},{"PERIAPSIS":"546.253","TLE_LINE1":"1 48436U 21040J   22258.95018738  .00002790  00000-0  20608-3 0  9999","ARG_OF_PERICENTER":"78.9472","EPOCH":"2022-09-15T22:48:16.189632","APOAPSIS":"548.151","SEMIMAJOR_AXIS":"6925.337","REF_FRAME":"TEME","GP_ID":"212656181","TLE_LINE2":"2 48436  53.0556 126.1980 0001371  78.9472 281.1671 15.06403765 75541","OBJECT_TYPE":"PAYLOAD","INCLINATION":"53.0556","DECAY_DATE":null,"RA_OF_ASC_NODE":"126.1980","MEAN_MOTION_DOT":"0.00002790","RCS_SIZE":"LARGE","CLASSIFICATION_TYPE":"U","MEAN_ANOMALY":"281.1671","MEAN_ELEMENT_THEORY":"SGP4","SITE":"AFETR","MEAN_MOTION":"15.06403765","LAUNCH_DATE":"2021-05-09","CENTER_NAME":"EARTH","ELEMENT_SET_NO":"999","FILE":"3574926","NORAD_CAT_ID":"48436","OBJECT_ID":"2021-040J","OBJECT_NAME":"STARLINK-2639","BSTAR":"0.00020608000000","PERIOD":"95.592","REV_AT_EPOCH":"7554","MEAN_MOTION_DDOT":"0.0000000000000","ECCENTRICITY":"0.00013710","EPHEMERIS_TYPE":"0","COUNTRY_CODE":"US","TIME_SYSTEM":"UTC"}];
